[{"OBJECT_NAME":"STARLINK-5337","OBJECT_ID":"2023-010R","EPOCH":"2026-03-09T23:31:30.169056","MEAN_MOTION":14.98429662,"ECCENTRICITY":0.00030856,"INCLINATION":70.0002,"RA_OF_ASC_NODE":43.5513,"ARG_OF_PERICENTER":267.612,"MEAN_ANOMALY":92.4686,"EPHEMERIS_TYPE":0,"CLASSIFICATION_TYPE":"U","NORAD_CAT_ID":55284,"ELEMENT_SET_NO":999,"REV_AT_EPOCH":17281,"BSTAR":0.0039719726,"MEAN_MOTION_DOT":0.00047747,"MEAN_MOTION_DDOT":0},{"OBJECT_NAME":"ICEYE-X45","OBJECT_ID":"2025-009DA","EPOCH":"2026-03-09T17:22:29.842464","MEAN_MOTION":15.00857928,"ECCENTRICITY":8.841e-5,"INCLINATION":97.8049,"RA_OF_ASC_NODE":154.8158,"ARG_OF_PERICENTER":73.7941,"MEAN_ANOMALY":286.338,"EPHEMERIS_TYPE":0,"CLASSIFICATION_TYPE":"U","NORAD_CAT_ID":62705,"ELEMENT_SET_NO":999,"REV_AT_EPOCH":6276,"BSTAR":0.00045352987,"MEAN_MOTION_DOT":5.708e-5,"MEAN_MOTION_DDOT":0}]
